ONEWEB-0066             
1 45424U 20020A   23251.45788963  .00000512  00000+0  14095-2 0  9994
2 45424  87.8928 222.2258 0002513  88.7871 271.3545 13.11415340169945
ONEWEB-0067             
1 45425U 20020B   23251.48224611 -.00000490  00000+0 -14180-2 0  9995
2 45425  87.8928 222.1961 0001910  93.0311 267.1035 13.11415477170001
ONEWEB-0080             
1 45426U 20020C   23251.43244730  .00000200  00000+0  52822-3 0  9998
2 45426  87.8932 222.2333 0002502  85.3536 274.7878 13.11418468169967
ONEWEB-0090             
1 45427U 20020D   23251.44936322  .00000639  00000+0  17673-2 0  9995
2 45427  87.8925 222.2110 0002334  84.2781 275.8613 13.11416659169932
ONEWEB-0061             
1 45428U 20020E   23251.48118143 -.00000458  00000+0 -13271-2 0  9994
2 45428  87.8928 222.2047 0002020  85.8028 274.3331 13.11415312169899
ONEWEB-0081             
1 45429U 20020F   23251.46212154  .00000394  00000+0  10767-2 0  9994
2 45429  87.8926 222.2280 0002174  89.6279 270.5098 13.11414876170004
ONEWEB-0069             
1 45430U 20020G   23251.45152813  .00000522  00000+0  14362-2 0  9998
2 45430  87.8922 222.2233 0002307  83.2124 276.9266 13.11415334169934
ONEWEB-0031             
1 45431U 20020H   23251.42396405 -.00000197  00000+0 -59258-3 0  9997
2 45431  87.8932 222.2214 0001874  81.5343 278.5998 13.11418482169912
